STARLINK-36982
1 68278U 26055S   26090.83335647 -.01261595  00000+0 -48851-2 0  9993
2 68278  53.1570 226.2603 0000844  60.2005 334.5956 15.88943565  3196
